{"type": "FeatureCollection", "features": [ {"type": "Feature", "properties": {"norad_id": 41774, "name": "SKYSAT-C3", "group": "resource", "lat": -37.31683290800913, "lon": 28.121398531549485, "alt_km": 440.24164502398526, "timestamp": "2025-12-15T04:01:20.100203+00:00", "meta": {"OBJECT_NAME": "SKYSAT-C3", "OBJECT_ID": "2016-058E", "EPOCH": "2025-12-14T01:45:02.943072", "MEAN_MOTION": 15.44456794, "ECCENTRICITY": 0.00017069, "INCLINATION": 96.9307, "RA_OF_ASC_NODE": 21.757, "ARG_OF_PERICENTER": 107.5774, "MEAN_ANOMALY": 252.5662, "EPHEMERIS_TYPE": 0, "CLASSIFICATION_TYPE": "U", "NORAD_CAT_ID": 41774, "ELEMENT_SET_NO": 999, "REV_AT_EPOCH": 51746, "BSTAR": 0.000438274, "MEAN_MOTION_DOT": 0.0002023, "MEAN_MOTION_DDOT": 0}, "tle": {"line1": "1 41774U 16058E   25348.07295073  .00020230  00000+0  43827-3 0  9991", "line2": "2 41774  96.9307  21.7570 0001706 107.5774 252.5662 15.44456794517466"}}, "geometry": {"type": "Point", "coordinates": [28.121398531549485, -37.31683290800913]}}, {"type": "Feature", "properties": {"norad_id": 41785, "name": "ALSAT 1B", "group": "resource", "lat": -82.19861285502166, "lon": 94.35016060130195, "alt_km": 669.2985155438028, "timestamp": "2025-12-15T04:01:20.100214+00:00", "meta": {"OBJECT_NAME": "ALSAT 1B", "OBJECT_ID": "2016-059C", "EPOCH": "2025-12-14T07:13:33.749184", "MEAN_MOTION": 14.7207937, "ECCENTRICITY": 0.00107361, "INCLINATION": 97.7819, "RA_OF_ASC_NODE": 0.0238, "ARG_OF_PERICENTER": 98.6398, "MEAN_ANOMALY": 261.6027, "EPHEMERIS_TYPE": 0, "CLASSIFICATION_TYPE": "U", "NORAD_CAT_ID": 41785, "ELEMENT_SET_NO": 999, "REV_AT_EPOCH": 49337, "BSTAR": 0.00017303747, "MEAN_MOTION_DOT": 1.042e-05, "MEAN_MOTION_DDOT": 0}, "tle": {"line1": "1 41785U 16059C   25348.30108506  .00001042  00000+0  17304-3 0  9995", "line2": "2 41785  97.7819   0.0238 0010736  98.6398 261.6027 14.72079370493371"}}, "geometry": {"type": "Point", "coordinates": [94.35016060130195, -82.19861285502166]}}, {"type": "Feature", "properties": {"norad_id": 41787, "name": "PATHFINDER 1", "group": "resource", "lat": -53.02245586701684, "lon": 2.337031646394339, "alt_km": 689.4196802810757, "timestamp": "2025-12-15T04:01:20.100225+00:00", "meta": {"OBJECT_NAME": "PATHFINDER 1", "OBJECT_ID": "2016-059E", "EPOCH": "2025-12-14T06:59:27.713472", "MEAN_MOTION": 14.67324498, "ECCENTRICITY": 0.00300134, "INCLINATION": 97.8139, "RA_OF_ASC_NODE": 350.9929, "ARG_OF_PERICENTER": 76.5228, "MEAN_ANOMALY": 283.9319, "EPHEMERIS_TYPE": 0, "CLASSIFICATION_TYPE": "U", "NORAD_CAT_ID": 41787, "ELEMENT_SET_NO": 999, "REV_AT_EPOCH": 49259, "BSTAR": 0.00020454178, "MEAN_MOTION_DOT": 1.116e-05, "MEAN_MOTION_DDOT": 0}, "tle": {"line1": "1 41787U 16059E   25348.29129298  .00001116  00000+0  20454-3 0  9998", "line2": "2 41787  97.8139 350.9929 0030013  76.5228 283.9319 14.67324498492592"}}, "geometry": {"type": "Point", "coordinates": [2.337031646394339, -53.02245586701684]}}, {"type": "Feature", "properties": {"norad_id": 41790, "name": "SCATSAT 1", "group": "resource", "lat": 39.46673051121236, "lon": 39.09476307994905, "alt_km": 622.7206615736641, "timestamp": "2025-12-15T04:01:20.100235+00:00", "meta": {"OBJECT_NAME": "SCATSAT 1", "OBJECT_ID": "2016-059H", "EPOCH": "2025-12-14T06:43:58.554048", "MEAN_MOTION": 14.7894434, "ECCENTRICITY": 0.00563344, "INCLINATION": 98.1466, "RA_OF_ASC_NODE": 44.9701, "ARG_OF_PERICENTER": 123.1232, "MEAN_ANOMALY": 237.5402, "EPHEMERIS_TYPE": 0, "CLASSIFICATION_TYPE": "U", "NORAD_CAT_ID": 41790, "ELEMENT_SET_NO": 999, "REV_AT_EPOCH": 7425, "BSTAR": 0.00028030917, "MEAN_MOTION_DOT": 2.067e-05, "MEAN_MOTION_DDOT": 0}, "tle": {"line1": "1 41790U 16059H   25348.28053882  .00002067  00000+0  28031-3 0  9991", "line2": "2 41790  98.1466  44.9701 0056334 123.1232 237.5402 14.78944340 74252"}}, "geometry": {"type": "Point", "coordinates": [39.09476307994905, 39.46673051121236]}}, {"type": "Feature", "properties": {"norad_id": 41875, "name": "GOKTURK 1A", "group": "resource", "lat": -15.750643792499151, "lon": -116.18542206674329, "alt_km": 689.0298636807547, "timestamp": "2025-12-15T04:01:20.100245+00:00", "meta": {"OBJECT_NAME": "GOKTURK 1A", "OBJECT_ID": "2016-073A", "EPOCH": "2025-12-14T06:45:10.538208", "MEAN_MOTION": 14.62783041, "ECCENTRICITY": 0.00012569, "INCLINATION": 98.1425, "RA_OF_ASC_NODE": 240.6262, "ARG_OF_PERICENTER": 79.6148, "MEAN_ANOMALY": 280.5196, "EPHEMERIS_TYPE": 0, "CLASSIFICATION_TYPE": "U", "NORAD_CAT_ID": 41875, "ELEMENT_SET_NO": 999, "REV_AT_EPOCH": 48179, "BSTAR": 0.00018109044, "MEAN_MOTION_DOT": 8.77e-06, "MEAN_MOTION_DDOT": 0}, "tle": {"line1": "1 41875U 16073A   25348.28137197  .00000877  00000+0  18109-3 0  9995", "line2": "2 41875  98.1425 240.6262 0001256  79.6148 280.5196 14.62783041481793"}}, "geometry": {"type": "Point", "coordinates": [-116.18542206674329, -15.750643792499151]}}, {"type": "Feature", "properties": {"norad_id": 41877, "name": "RESOURCESAT-2A", "group": "resource", "lat": 33.25718112526784, "lon": 53.194804178714335, "alt_km": 818.5785744809637, "timestamp": "2025-12-15T04:01:20.100256+00:00", "meta": {"OBJECT_NAME": "RESOURCESAT-2A", "OBJECT_ID": "2016-074A", "EPOCH": "2025-12-14T07:35:38.217984", "MEAN_MOTION": 14.21601772, "ECCENTRICITY": 0.00012004, "INCLINATION": 98.7754, "RA_OF_ASC_NODE": 58.1628, "ARG_OF_PERICENTER": 246.3292, "MEAN_ANOMALY": 113.7759, "EPHEMERIS_TYPE": 0, "CLASSIFICATION_TYPE": "U", "NORAD_CAT_ID": 41877, "ELEMENT_SET_NO": 999, "REV_AT_EPOCH": 46803, "BSTAR": 0.00027290498, "MEAN_MOTION_DOT": 5.54e-06, "MEAN_MOTION_DDOT": 0}, "tle": {"line1": "1 41877U 16074A   25348.31641456  .00000554  00000+0  27290-3 0  9993", "line2": "2 41877  98.7754  58.1628 0001200 246.3292 113.7759 14.21601772468035"}}, "geometry": {"type": "Point", "coordinates": [53.194804178714335, 33.25718112526784]}}, {"type": "Feature", "properties": {"norad_id": 41948, "name": "CARTOSAT-2D", "group": "resource", "lat": 7.43777929986617, "lon": -132.39450577532094, "alt_km": 506.90124522650785, "timestamp": "2025-12-15T04:01:20.100266+00:00", "meta": {"OBJECT_NAME": "CARTOSAT-2D", "OBJECT_ID": "2017-008A", "EPOCH": "2025-12-14T08:17:51.732960", "MEAN_MOTION": 15.19281272, "ECCENTRICITY": 0.00048339, "INCLINATION": 97.4394, "RA_OF_ASC_NODE": 45.8186, "ARG_OF_PERICENTER": 156.4375, "MEAN_ANOMALY": 203.7082, "EPHEMERIS_TYPE": 0, "CLASSIFICATION_TYPE": "U", "NORAD_CAT_ID": 41948, "ELEMENT_SET_NO": 999, "REV_AT_EPOCH": 48951, "BSTAR": 0.00023518297, "MEAN_MOTION_DOT": 4.895e-05, "MEAN_MOTION_DDOT": 0}, "tle": {"line1": "1 41948U 17008A   25348.34573765  .00004895  00000+0  23518-3 0  9991", "line2": "2 41948  97.4394  45.8186 0004833 156.4375 203.7082 15.19281272489512"}}, "geometry": {"type": "Point", "coordinates": [-132.39450577532094, 7.43777929986617]}}, {"type": "Feature", "properties": {"norad_id": 42063, "name": "SENTINEL-2B", "group": "resource", "lat": 78.78799892844773, "lon": 12.040112880606973, "alt_km": 780.8130066763897, "timestamp": "2025-12-15T04:01:20.100276+00:00", "meta": {"OBJECT_NAME": "SENTINEL-2B", "OBJECT_ID": "2017-013A", "EPOCH": "2025-12-14T09:10:31.696320", "MEAN_MOTION": 14.30817664, "ECCENTRICITY": 0.00011659, "INCLINATION": 98.5711, "RA_OF_ASC_NODE": 60.8047, "ARG_OF_PERICENTER": 92.9926, "MEAN_ANOMALY": 267.139, "EPHEMERIS_TYPE": 0, "CLASSIFICATION_TYPE": "U", "NORAD_CAT_ID": 42063, "ELEMENT_SET_NO": 999, "REV_AT_EPOCH": 45821, "BSTAR": 0.00015303514, "MEAN_MOTION_DOT": 3.57e-06, "MEAN_MOTION_DDOT": 0}, "tle": {"line1": "1 42063U 17013A   25348.38231130  .00000357  00000+0  15304-3 0  9990", "line2": "2 42063  98.5711  60.8047 0001165  92.9926 267.1390 14.30817664458211"}}, "geometry": {"type": "Point", "coordinates": [12.040112880606973, 78.78799892844773]}}, {"type": "Feature", "properties": {"norad_id": 42767, "name": "CARTOSAT-2E", "group": "resource", "lat": 79.53498947047227, "lon": 1.566081182597586, "alt_km": 501.9674735150584, "timestamp": "2025-12-15T04:01:20.100286+00:00", "meta": {"OBJECT_NAME": "CARTOSAT-2E", "OBJECT_ID": "2017-036C", "EPOCH": "2025-12-14T07:06:35.492832", "MEAN_MOTION": 15.19222015, "ECCENTRICITY": 0.00020655, "INCLINATION": 97.4561, "RA_OF_ASC_NODE": 45.8626, "ARG_OF_PERICENTER": 230.793, "MEAN_ANOMALY": 129.3122, "EPHEMERIS_TYPE": 0, "CLASSIFICATION_TYPE": "U", "NORAD_CAT_ID": 42767, "ELEMENT_SET_NO": 999, "REV_AT_EPOCH": 47007, "BSTAR": 0.00031073378, "MEAN_MOTION_DOT": 6.477e-05, "MEAN_MOTION_DDOT": 0}, "tle": {"line1": "1 42767U 17036C   25348.29624413  .00006477  00000+0  31073-3 0  9996", "line2": "2 42767  97.4561  45.8626 0002065 230.7930 129.3122 15.19222015470074"}}, "geometry": {"type": "Point", "coordinates": [1.566081182597586, 79.53498947047227]}}, {"type": "Feature", "properties": {"norad_id": 42920, "name": "FORMOSAT-5", "group": "resource", "lat": -77.7967213088768, "lon": -158.66556353187394, "alt_km": 723.4312113648912, "timestamp": "2025-12-15T04:01:20.100297+00:00", "meta": {"OBJECT_NAME": "FORMOSAT-5", "OBJECT_ID": "2017-049A", "EPOCH": "2025-12-14T06:57:44.831808", "MEAN_MOTION": 14.51006633, "ECCENTRICITY": 0.00098472, "INCLINATION": 98.2452, "RA_OF_ASC_NODE": 62.5784, "ARG_OF_PERICENTER": 290.1767, "MEAN_ANOMALY": 69.8369, "EPHEMERIS_TYPE": 0, "CLASSIFICATION_TYPE": "U", "NORAD_CAT_ID": 42920, "ELEMENT_SET_NO": 999, "REV_AT_EPOCH": 43986, "BSTAR": 9.4992684e-05, "MEAN_MOTION_DOT": 3.32e-06, "MEAN_MOTION_DDOT": 0}, "tle": {"line1": "1 42920U 17049A   25348.29010222  .00000332  00000+0  94993-4 0  9993", "line2": "2 42920  98.2452  62.5784 0009847 290.1767  69.8369 14.51006633439861"}}, "geometry": {"type": "Point", "coordinates": [-158.66556353187394, -77.7967213088768]}}]}